BEESAT-4                
1 41619U 16040W   22294.38102277  .00018626  00000+0  55120-3 0  9999
2 41619  97.2025 341.8203 0009016  35.8595 324.3252 15.34901804340014
CAS-2T & KS-1Q          
1 41847U 16066G   22294.43335924  .00001300  00000+0  20421-3 0  9990
2 41847  98.5378 358.9010 0362869 192.7872 166.3923 14.38811507312466
NAYIF-1 (EO-88)         
1 42017U 17008BX  22294.45286749  .00021290  00000+0  54957-3 0  9990
2 42017  97.2553 358.9737 0005296 143.4684 216.6924 15.39155634316429
ZHUHAI-1 02 (CAS-4B)    
1 42759U 17034B   22294.60752935  .00006003  00000+0  34712-3 0  9996
2 42759  43.0187 356.9124 0010098 357.7395 154.3448 15.12897145295456
ZHUHAI-1 01 (CAS-4A)    
1 42761U 17034D   22294.56935741  .00006433  00000+0  37003-3 0  9995
2 42761  43.0193 355.8183 0010630 359.9539 147.9943 15.12988962295451
MAX VALIER SAT          
1 42778U 17036P   22294.33010614  .00010950  00000+0  38922-3 0  9993
2 42778  97.1928 331.1703 0008840 231.1737 128.8715 15.29132785296123
RADFXSAT (FOX-1B)       
1 43017U 17073E   22294.44382668  .00003363  00000+0  25091-3 0  9997
2 43017  97.6569 183.4404 0246635 134.6659 227.4949 14.82320099265775
FOX-1D (AO-92)          
1 43137U 18004AC  22294.47835163  .00012282  00000+0  39966-3 0  9997
2 43137  97.3585   8.6176 0005963 274.0698  85.9862 15.31996865265626
DIWATA-2B               
1 43678U 18084H   22294.44279366  .00001108  00000+0  11391-3 0  9996
2 43678  97.9890  69.3342 0008755 225.4024 134.6464 14.92404253216644
ES'HAIL 2               
1 43700U 18090A   22294.21368856  .00000149  00000+0  00000+0 0  9992
2 43700   0.0177 242.6988 0001136 328.2865 281.3892  1.00270393 14299
FOX-1CLIFF (AO-95)      
1 43770U 18099N   22294.41193121  .00002438  00000+0  21609-3 0  9996
2 43770  97.6091 357.4469 0013069 207.2500 152.8038 14.97068867211858
ITASAT 1                
1 43786U 18099AE  22294.46281616  .00002924  00000+0  25777-3 0  9995
2 43786  97.6107 358.4784 0014224 199.0110 161.0583 14.97123360211906
JY1SAT (JO-97)          
1 43803U 18099AX  22294.16671526  .00002669  00000+0  23195-3 0  9993
2 43803  97.6065 357.9908 0014106 202.1876 157.8737 14.97758612211880
UWE-4                   
1 43880U 18111E   22294.47526711  .00003315  00000+0  27898-3 0  9995
2 43880  97.6552 198.5568 0010016 252.0122 108.0010 14.98892850208579
NEXUS (FO-99)           
1 43937U 19003F   22294.35604393  .00016344  00000+0  49590-3 0  9998
2 43937  97.1206 322.9741 0020691  66.1752 294.1658 15.33962131209253
PSAT2 (NO-104)          
1 44354U 19036R   22294.53463074  .00092770 -44616-5  58627-3 0  9993
2 44354  28.5233  15.0907 0171643 327.6138  31.4029 15.57304935184227
JAISAT-1                
1 44419U 19038F   22294.45525200  .00009940  00000+0  46922-3 0  9992
2 44419  97.6503 265.8520 0020507  60.0462 300.2805 15.19465856182171
DUCHIFAT-3              
1 44854U 19089C   22294.54435196  .00006231  00000+0  47182-3 0  9994
2 44854  36.9653  72.3945 0006282 172.9701 273.0633 15.02006239156895
CAS-6 (TIANQIN 1)       
1 44881U 19093C   22294.51656233  .00000943  00000+0  12561-3 0  9990
2 44881  97.8841  11.8702 0015935 132.2338 228.0226 14.81882255153441
RS-44 & BREEZE-KM R/B   
1 44909U 19096E   22294.29908968  .00000035  00000+0  92641-4 0  9994
2 44909  82.5196 146.6912 0217923  25.7287 335.4463 12.79716003131608
ORBITAL FACTORY 2 (OF-2)
1 45113U 19071C   22294.33955280  .00041860  00000+0  65511-3 0  9995
2 45113  51.6348 157.0400 0008468 258.4509 101.5530 15.53287165152881
HUSKYSAT-1 (HO-107)     
1 45119U 19071J   22293.03636747  .00033807  00000+0  57330-3 0  9993
2 45119  51.6357 164.8027 0008375 251.4664 108.5416 15.51150527152654
BY70-2                  
1 45857U 20042B   22294.54175207  .00011122  00000+0  14220-2 0  9994
2 45857  97.9483  10.2546 0011075  68.6982 291.5167 14.81506623124118
SALSAT                  
1 46495U 20068K   22294.50883108  .00002647  00000+0  19000-3 0  9997
2 46495  97.7406 235.9469 0015408 204.2667 155.7835 15.05114275113141
BY70-3                  
1 46839U 20079N   22294.65345708  .00039872  00000+0  74892-3 0  9996
2 46839  97.1851   5.4703 0004566 222.8765 293.9613 15.48486312109729
RADFXSAT-2 (AO-109)     
1 47311U 21002C   22294.25438463  .00012638  00000+0  46694-3 0  9996
2 47311  60.6839 248.0177 0036342  56.9536 303.5035 15.27506850 97667
UVSQ-SAT                
1 47438U 21006AB  22294.38808287  .00007356  00000+0  37264-3 0  9993
2 47438  97.4233 350.8246 0011268 190.5389 169.5610 15.17219152 96363
DIY-1 (ARDUIQUBE)       
1 47963U 21022AH  22294.47993705  .00021337  00000+0  10510-2 0  9993
2 47963  97.5179 194.6003 0018191  61.9590 298.3481 15.17837596 86036
XW-3 (CAS-9)            
1 50466U 21131B   22294.48576296  .00000229  00000+0  89568-4 0  9997
2 50466  98.5726  11.6300 0005600 128.5938 231.5752 14.38553466 43038
TEVEL-3                 
1 50988U 22002E   22294.43375466  .00010652  00000+0  55378-3 0  9997
2 50988  97.4678 359.3525 0008859 357.2549  58.8721 15.16215333 42490
TEVEL-8                 
1 50989U 22002F   22294.44313836  .00010580  00000+0  55089-3 0  9991
2 50989  97.4711 359.3951 0009384 356.3490  59.1539 15.16159669 42491
TEVEL-5                 
1 50998U 22002Q   22294.42681797  .00010730  00000+0  54947-3 0  9992
2 50998  97.4673 359.5154 0010160 348.1616 140.0669 15.16735175 42506
TEVEL-6                 
1 50999U 22002R   22294.42609612  .00010639  00000+0  54480-3 0  9999
2 50999  97.4675 359.5139 0009924 348.4057 139.9041 15.16739658 42501
TEVEL-1                 
1 51013U 22002AF  22294.43839328  .00010653  00000+0  55428-3 0  9996
2 51013  97.4688 359.3292 0008996 356.2870  61.3519 15.16186090 42491
TEVEL-7                 
1 51062U 22002CG  22294.45711188  .00010613  00000+0  55270-3 0  9996
2 51062  97.4706 359.3921 0008861 355.0405 125.9586 15.16155880 42491
TEVEL-4                 
1 51063U 22002CH  22294.45848500  .00010477  00000+0  54584-3 0  9991
2 51063  97.4703 359.3873 0009121 355.9070 125.6475 15.16141104 42490
TEVEL-2                 
1 51069U 22002CP  22294.44891279  .00010602  00000+0  55131-3 0  9996
2 51069  97.4680 359.3504 0008601 357.0612 133.0484 15.16209221 42496
GREENCUBE               
1 53106U 22080B   22291.96147202 -.00000003  00000+0  00000+0 0  9996
2 53106  70.1713  43.5209 0008810 236.5247 123.4571  6.42557698  6253
YUZGU 9 (RS3S)          
1 53308U 98067TT  22294.46199484  .00073159  00000+0  89784-3 0  9996
2 53308  51.6378  68.4906 0005577 325.2660  34.7968 15.59628943 14343
YUZGU 7 (RS1S)          
1 53309U 98067TU  22294.45437237  .00076359  00000+0  92321-3 0  9993
2 53309  51.6376  68.4361 0005663 332.3165  27.7526 15.60002773 14297
YUZGU 11 (RS5S)         
1 53310U 98067TV  22294.46124223  .00071921  00000+0  88196-3 0  9999
2 53310  51.6377  68.4861 0005294 331.7889  28.2817 15.59658144 14321
YUZGU 12 (RS6S)         
1 53311U 98067TW  22294.50861890  .00072770  00000+0  87038-3 0  9990
2 53311  51.6379  68.0474 0005951 319.6406  40.4145 15.60303797 14356
TSIOLKOVSKY-RYAZAN 1 (*)
1 53312U 98067TX  22294.51661362  .00076979  00000+0  93028-3 0  9995
2 53312  51.6386  68.1049 0005679 335.4310  24.6412 15.60011312 14294
TSIOLKOVSKY-RYAZAN 2 (*)
1 53313U 98067TY  22294.51450672  .00074549  00000+0  90251-3 0  9992
2 53313  51.6387  68.0914 0005177 333.4135  26.6592 15.59981564 14342
YUZGU 10 (RS4S)         
1 53321U 98067TZ  22294.45962091  .00073092  00000+0  89047-3 0  9990
2 53321  51.6378  68.4751 0005581 328.4388  31.6270 15.59822022 14338
RS29S (SXC3-2110 CYCLO*)
1 53373U 22096D   22294.61121066  .00013832  00000+0  54012-3 0  9993
2 53373  97.4283 195.5540 0001188  52.1527  31.8542 15.26010985 11175
RS32S (SXC3-212 MONITO*)
1 53374U 22096E   22294.60590845  .00013816  00000+0  53764-3 0  9993
2 53374  97.4274 195.5590 0000886  60.6859  23.4931 15.26126154 11172
RS34S (SXC3-218 KUZBAS*)
1 53375U 22096F   22294.49419785  .00011311  00000+0  44392-3 0  9999
2 53375  97.4286 195.4426 0000814  38.8433 135.4864 15.25889700 11158
RS23S (SXC3-21 UTMN)    
1 53376U 22096G   22294.60370744  .00011144  00000+0  43688-3 0  9995
2 53376  97.4278 195.5549 0000567  85.7504 337.9590 15.25931102 11173
RS28S (SXC3-214 MIET-A*)
1 53377U 22096H   22294.59982278  .00011428  00000+0  44775-3 0  9998
2 53377  97.4282 195.5537 0000547  79.1919 330.3176 15.25945763 11176
RS26S (KAI-1)           
1 53378U 22096J   22294.60300117  .00009871  00000+0  38848-3 0  9990
2 53378  97.4284 195.5548 0000741 126.4219 296.8994 15.25836216 11172
RS19S (SXC3-219 ISOI)   
1 53381U 22096M   22294.45926053  .00011686  00000+0  45125-3 0  9993
2 53381  97.4281 195.4640 0004192 161.2907 314.4604 15.26416017 11157
RS21S (CUBESX-HSE-2)    
1 53383U 22096P   22294.58526712  .00011266  00000+0  43489-3 0  9992
2 53383  97.4289 195.5945 0004457 159.5701 300.1987 15.26437983 11175
RS30S (SXC3-217 SIREN)  
1 53384U 22096Q   22294.58869510  .00010613  00000+0  41043-3 0  9998
2 53384  97.4281 195.5972 0004086 161.9692 316.4455 15.26394415 11174
RS20S (GEOSCAN-EDELVEIS)
1 53385U 22096R   22294.57540690  .00014302  00000+0  54289-3 0  9998
2 53385  97.4276 195.6152 0004409 160.5451 319.7966 15.26937621 11206
RS33S (SXC3-215 VIZARD) 
1 53386U 22096S   22294.61892979  .00017132  00000+0  63883-3 0  9998
2 53386  97.4282 195.6947 0004934 164.7629 281.7060 15.27483454 11206
